{
  "type": "FeatureCollection",
  "features": [
    {
      "type": "Feature",
      "properties": {
        "norad_id": 15362,
        "name": "NOVA 3",
        "group": "nnss",
        "lat": -88.23322977225858,
        "lon": 84.61675977544395,
        "alt_km": 1160.798398994296,
        "timestamp": "2025-12-23T14:49:09.659415+00:00",
        "meta_object_name": "NOVA 3",
        "meta_object_id": "1984-110A",
        "meta_epoch": "2025-12-23T04:41:17.467584",
        "meta_mean_motion": 13.2304577,
        "meta_eccentricity": 0.00299135,
        "meta_inclination": 90.1218,
        "meta_ra_of_asc_node": 80.6577,
        "meta_arg_of_pericenter": 301.821,
        "meta_mean_anomaly": 120.6756,
        "meta_ephemeris_type": 0,
        "meta_classification_type": "U",
        "meta_norad_cat_id": 15362,
        "meta_element_set_no": 999,
        "meta_rev_at_epoch": 98837,
        "meta_bstar": 0.00021033822,
        "meta_mean_motion_dot": 9.7e-07,
        "meta_mean_motion_ddot": 0,
        "tle_line1": "1 15362U 84110A   25357.19534106  .00000097  00000+0  21034-3 0  9990",
        "tle_line2": "2 15362  90.1218  80.6577 0029913 301.8210 120.6756 13.23045770988376"
      },
      "geometry": {
        "type": "Point",
        "coordinates": [
          84.61675977544395,
          -88.23322977225858
        ]
      }
    },
    {
      "type": "Feature",
      "properties": {
        "norad_id": 15935,
        "name": "OSCAR 30",
        "group": "nnss",
        "lat": 35.57153001968614,
        "lon": -79.8566658542311,
        "alt_km": 1121.2248290096559,
        "timestamp": "2025-12-23T14:49:09.659426+00:00",
        "meta_object_name": "OSCAR 30",
        "meta_object_id": "1985-066A",
        "meta_epoch": "2025-12-23T05:25:30.096192",
        "meta_mean_motion": 13.36079987,
        "meta_eccentricity": 0.01689975,
        "meta_inclination": 90.1654,
        "meta_ra_of_asc_node": 100.0186,
        "meta_arg_of_pericenter": 54.6046,
        "meta_mean_anomaly": 6.1693,
        "meta_ephemeris_type": 0,
        "meta_classification_type": "U",
        "meta_norad_cat_id": 15935,
        "meta_element_set_no": 999,
        "meta_rev_at_epoch": 96593,
        "meta_bstar": 0.00017369272,
        "meta_mean_motion_dot": 1.06e-06,
        "meta_mean_motion_ddot": 0,
        "tle_line1": "1 15935U 85066A   25357.22604278  .00000106  00000+0  17369-3 0  9996",
        "tle_line2": "2 15935  90.1654 100.0186 0168997  54.6046   6.1693 13.36079987965931"
      },
      "geometry": {
        "type": "Point",
        "coordinates": [
          -79.8566658542311,
          35.57153001968614
        ]
      }
    },
    {
      "type": "Feature",
      "properties": {
        "norad_id": 15936,
        "name": "OSCAR 24",
        "group": "nnss",
        "lat": -33.15876568478546,
        "lon": -87.61926918595653,
        "alt_km": 1244.0629405792524,
        "timestamp": "2025-12-23T14:49:09.659439+00:00",
        "meta_object_name": "OSCAR 24",
        "meta_object_id": "1985-066B",
        "meta_epoch": "2025-12-22T17:00:50.070240",
        "meta_mean_motion": 13.35937122,
        "meta_eccentricity": 0.01701816,
        "meta_inclination": 90.1791,
        "meta_ra_of_asc_node": 92.4818,
        "meta_arg_of_pericenter": 62.4983,
        "meta_mean_anomaly": 102.6279,
        "meta_ephemeris_type": 0,
        "meta_classification_type": "U",
        "meta_norad_cat_id": 15936,
        "meta_element_set_no": 999,
        "meta_rev_at_epoch": 96776,
        "meta_bstar": 0.00014928667,
        "meta_mean_motion_dot": 9.3e-07,
        "meta_mean_motion_ddot": 0,
        "tle_line1": "1 15936U 85066B   25356.70891285  .00000093  00000+0  14929-3 0  9999",
        "tle_line2": "2 15936  90.1791  92.4818 0170181  62.4983 102.6279 13.35937122967763"
      },
      "geometry": {
        "type": "Point",
        "coordinates": [
          -87.61926918595653,
          -33.15876568478546
        ]
      }
    },
    {
      "type": "Feature",
      "properties": {
        "norad_id": 17070,
        "name": "POLAR BEAR",
        "group": "nnss",
        "lat": 33.845536566353445,
        "lon": 3.0811480285518096,
        "alt_km": 962.5593147589898,
        "timestamp": "2025-12-23T14:49:09.659451+00:00",
        "meta_object_name": "POLAR BEAR",
        "meta_object_id": "1986-088A",
        "meta_epoch": "2025-12-23T00:55:53.242752",
        "meta_mean_motion": 13.7525287,
        "meta_eccentricity": 0.00412913,
        "meta_inclination": 89.6171,
        "meta_ra_of_asc_node": 183.3614,
        "meta_arg_of_pericenter": 89.6168,
        "meta_mean_anomaly": 72.8852,
        "meta_ephemeris_type": 0,
        "meta_classification_type": "U",
        "meta_norad_cat_id": 17070,
        "meta_element_set_no": 999,
        "meta_rev_at_epoch": 96120,
        "meta_bstar": 9.1661902e-05,
        "meta_mean_motion_dot": 1e-06,
        "meta_mean_motion_ddot": 0,
        "tle_line1": "1 17070U 86088A   25357.03881068  .00000100  00000+0  91662-4 0  9999",
        "tle_line2": "2 17070  89.6171 183.3614 0041291  89.6168  72.8852 13.75252870961200"
      },
      "geometry": {
        "type": "Point",
        "coordinates": [
          3.0811480285518096,
          33.845536566353445
        ]
      }
    },
    {
      "type": "Feature",
      "properties": {
        "norad_id": 18361,
        "name": "OSCAR 27",
        "group": "nnss",
        "lat": -62.412377328111575,
        "lon": 80.39492873248773,
        "alt_km": 1117.8635926905326,
        "timestamp": "2025-12-23T14:49:09.659464+00:00",
        "meta_object_name": "OSCAR 27",
        "meta_object_id": "1987-080A",
        "meta_epoch": "2025-12-23T04:25:12.444384",
        "meta_mean_motion": 13.44908817,
        "meta_eccentricity": 0.01037887,
        "meta_inclination": 90.3738,
        "meta_ra_of_asc_node": 79.6629,
        "meta_arg_of_pericenter": 193.7068,
        "meta_mean_anomaly": 166.1258,
        "meta_ephemeris_type": 0,
        "meta_classification_type": "U",
        "meta_norad_cat_id": 18361,
        "meta_element_set_no": 999,
        "meta_rev_at_epoch": 87697,
        "meta_bstar": 0.0001802801,
        "meta_mean_motion_dot": 1.17e-06,
        "meta_mean_motion_ddot": 0,
        "tle_line1": "1 18361U 87080A   25357.18417181  .00000117  00000+0  18028-3 0  9995",
        "tle_line2": "2 18361  90.3738  79.6629 0103788 193.7068 166.1258 13.44908817876972"
      },
      "geometry": {
        "type": "Point",
        "coordinates": [
          80.39492873248773,
          -62.412377328111575
        ]
      }
    },
    {
      "type": "Feature",
      "properties": {
        "norad_id": 18362,
        "name": "OSCAR 29",
        "group": "nnss",
        "lat": -68.12040139355759,
        "lon": 81.07334850029649,
        "alt_km": 1080.7551061849526,
        "timestamp": "2025-12-23T14:49:09.659475+00:00",
        "meta_object_name": "OSCAR 29",
        "meta_object_id": "1987-080B",
        "meta_epoch": "2025-12-23T04:43:56.481600",
        "meta_mean_motion": 13.44450399,
        "meta_eccentricity": 0.0104605,
        "meta_inclination": 90.375,
        "meta_ra_of_asc_node": 80.1232,
        "meta_arg_of_pericenter": 216.8758,
        "meta_mean_anomaly": 200.8691,
        "meta_ephemeris_type": 0,
        "meta_classification_type": "U",
        "meta_norad_cat_id": 18362,
        "meta_element_set_no": 999,
        "meta_rev_at_epoch": 87650,
        "meta_bstar": 0.00018208714,
        "meta_mean_motion_dot": 1.17e-06,
        "meta_mean_motion_ddot": 0,
        "tle_line1": "1 18362U 87080B   25357.19718150  .00000117  00000+0  18209-3 0  9998",
        "tle_line2": "2 18362  90.3750  80.1232 0104605 216.8758 200.8691 13.44450399876509"
      },
      "geometry": {
        "type": "Point",
        "coordinates": [
          81.07334850029649,
          -68.12040139355759
        ]
      }
    },
    {
      "type": "Feature",
      "properties": {
        "norad_id": 19070,
        "name": "OSCAR 23",
        "group": "nnss",
        "lat": 45.96549851847851,
        "lon": -162.93891497092,
        "alt_km": 1012.9276913525855,
        "timestamp": "2025-12-23T14:49:09.659487+00:00",
        "meta_object_name": "OSCAR 23",
        "meta_object_id": "1988-033A",
        "meta_epoch": "2025-12-23T01:46:21.934272",
        "meta_mean_motion": 13.27788834,
        "meta_eccentricity": 0.01903534,
        "meta_inclination": 90.3204,
        "meta_ra_of_asc_node": 16.7126,
        "meta_arg_of_pericenter": 151.2472,
        "meta_mean_anomaly": 266.342,
        "meta_ephemeris_type": 0,
        "meta_classification_type": "U",
        "meta_norad_cat_id": 19070,
        "meta_element_set_no": 999,
        "meta_rev_at_epoch": 82390,
        "meta_bstar": 0.00016035197,
        "meta_mean_motion_dot": 8.9e-07,
        "meta_mean_motion_ddot": 0,
        "tle_line1": "1 19070U 88033A   25357.07386498  .00000089  00000+0  16035-3 0  9990",
        "tle_line2": "2 19070  90.3204  16.7126 0190353 151.2472 266.3420 13.27788834823909"
      },
      "geometry": {
        "type": "Point",
        "coordinates": [
          -162.93891497092,
          45.96549851847851
        ]
      }
    }
  ]
}